{
    "links": {
        "self": "http://www.neowsapp.com/rest/v1/neo/3392376?api_key=iIulBulltgU6a56xZRHN4H3l9WmuAYTsLGpBGhQ2"
    },
    "id": "3392376",
    "neo_reference_id": "3392376",
    "name": "(2007 VF8)",
    "designation": "2007 VF8",
    "nasa_jpl_url": "http://ssd.jpl.nasa.gov/sbdb.cgi?sstr=3392376",
    "absolute_magnitude_h": 22.5,
    "estimated_diameter": {
        "kilometers": {
            "estimated_diameter_min": 0.0840533402,
            "estimated_diameter_max": 0.1879489824
        },
        "meters": {
            "estimated_diameter_min": 84.0533402073,
            "estimated_diameter_max": 187.9489824394
        },
        "miles": {
            "estimated_diameter_min": 0.0522283081,
            "estimated_diameter_max": 0.1167860472
        },
        "feet": {
            "estimated_diameter_min": 275.7655606856,
            "estimated_diameter_max": 616.6305395464
        }
    },
    "is_potentially_hazardous_asteroid": false,
    "close_approach_data": [
        {
            "close_approach_date": "2007-11-08",
            "close_approach_date_full": "2007-Nov-08 16:29",
            "epoch_date_close_approach": 1194539340000,
            "relative_velocity": {
                "kilometers_per_second": "18.1284607384",
                "kilometers_per_hour": "65262.4586581417",
                "miles_per_hour": "40551.5538256659"
            },
            "miss_distance": {
                "astronomical": "0.0655122255",
                "lunar": "25.4842557195",
                "kilometers": "9800489.393759685",
                "miles": "6089741.724206253"
            },
            "orbiting_body": "Earth"
        }
    ],
    "orbital_data": {
        "orbit_id": "10",
        "orbit_determination_date": "2017-04-06 09:05:20",
        "first_observation_date": "2007-11-05",
        "last_observation_date": "2007-11-10",
        "data_arc_in_days": 5,
        "observations_used": 41,
        "orbit_uncertainty": "8",
        "minimum_orbit_intersection": ".041107",
        "jupiter_tisserand_invariant": "3.797",
        "epoch_osculation": "2454413.5",
        "eccentricity": ".4590268987116017",
        "semi_major_axis": "1.794908697239743",
        "inclination": "30.62360020360375",
        "ascending_node_longitude": "41.92757222265845",
        "orbital_period": "878.3386017083066",
        "perihelion_distance": ".9709973244753022",
        "perihelion_argument": "36.68918860603615",
        "aphelion_distance": "2.618820070004183",
        "perihelion_time": "2454442.936267948617",
        "mean_anomaly": "347.935112448785",
        "mean_motion": ".4098647142455374",
        "equinox": "J2000",
        "orbit_class": {
            "orbit_class_type": "APO",
            "orbit_class_description": "Near-Earth asteroid orbits which cross the Earth’s orbit similar to that of 1862 Apollo",
            "orbit_class_range": "a (semi-major axis) > 1.0 AU; q (perihelion) < 1.017 AU"
        }
    },
    "is_sentry_object": false
}